OBJECT_NAME,OBJECT_ID,EPOCH,MEAN_MOTION,ECCENTRICITY,INCLINATION,RA_OF_ASC_NODE,ARG_OF_PERICENTER,MEAN_ANOMALY,EPHEMERIS_TYPE,CLASSIFICATION_TYPE,NORAD_CAT_ID,ELEMENT_SET_NO,REV_AT_EPOCH,BSTAR,MEAN_MOTION_DOT,MEAN_MOTION_DDOT
IRIDIUM 138,2017-083B,2026-07-18T18:46:11.044128,14.34217073,.000203,86.4001,308.5089,93.9917,266.1511,0,U,43071,999,44866,.61449E-4,.192E-5,0
IRIDIUM 116,2017-083C,2026-07-18T19:40:59.168064,14.34216762,.0002495,86.3989,308.7782,100.0325,260.1153,0,U,43072,999,44870,.3809E-4,.126E-5,0
IRIDIUM 130,2017-083D,2026-07-18T18:55:19.278048,14.34218787,.0002331,86.3995,309.0701,100.3469,259.7989,0,U,43073,999,44864,.4344E-4,.141E-5,0
IRIDIUM 151,2017-083E,2026-07-18T19:59:15.222048,14.34217702,.0002289,86.3987,308.8319,95.5385,264.6072,0,U,43074,999,44867,.30314E-4,.105E-5,0
IRIDIUM 134,2017-083F,2026-07-18T19:13:35.186016,14.34217856,.0002248,86.3990,308.8534,96.6551,263.4901,0,U,43075,999,44863,.70452E-5,.4E-6,0
IRIDIUM 137,2017-083G,2026-07-18T19:31:51.260736,14.34217624,.0002561,86.3987,308.9417,91.9723,268.1766,0,U,43076,999,44870,-.10621E-4,-.1E-6,0
IRIDIUM 141,2017-083H,2026-07-18T17:42:15.158016,14.34217786,.0002196,86.3987,308.8022,94.3679,265.7767,0,U,43077,999,44869,.12726E-4,.55E-6,0
IRIDIUM 153,2017-083J,2026-07-18T18:13:51.405600,14.34217675,.0002127,86.3957,277.2716,95.7446,264.3992,0,U,43078,999,44980,.13332E-5,.24E-6,0
IRIDIUM 131,2017-083K,2026-07-18T19:04:27.182784,14.34217464,.0002088,86.3986,308.9664,93.6613,266.4822,0,U,43079,999,44863,-.19877E-4,-.36E-6,0
IRIDIUM 144,2018-030A,2026-07-18T18:22:59.405376,14.34217236,.0002357,86.3956,277.1974,95.4703,264.6762,0,U,43249,999,43466,.22481E-4,.83E-6,0
IRIDIUM 149,2018-030B,2026-07-18T18:32:07.414656,14.34217622,.0002115,86.3952,277.1610,93.3888,266.7550,0,U,43250,999,43468,-.38365E-5,.9E-7,0
IRIDIUM 157,2018-030C,2026-07-18T17:19:03.467424,14.34218813,.0002286,86.3956,277.2365,95.0896,265.0561,0,U,43251,999,43465,.37716E-4,.125E-5,0
IRIDIUM 140,2018-030D,2026-07-18T17:46:27.561792,14.34218472,.0002253,86.3956,277.2410,95.9238,264.2215,0,U,43252,999,43471,.39983E-4,.132E-5,0
IRIDIUM 145,2018-030E,2026-07-18T17:28:11.480160,14.34217371,.0002552,86.3955,277.2185,98.2475,261.9010,0,U,43253,999,43464,.87028E-5,.44E-6,0
IRIDIUM 146,2018-030F,2026-07-18T17:00:47.469600,14.34217491,.0002365,86.3955,277.2385,96.0709,264.0757,0,U,43254,999,43465,.30874E-5,.28E-6,0
IRIDIUM 148,2018-030G,2026-07-18T17:55:35.525280,14.34218831,.0002337,86.3956,277.2662,93.0815,267.0648,0,U,43255,999,43469,.3896E-4,.129E-5,0
IRIDIUM 142,2018-030H,2026-07-18T17:09:55.433088,14.34217726,.0002338,86.3952,277.1671,95.9280,264.2182,0,U,43256,999,43465,-.96925E-6,.17E-6,0
IRIDIUM 150,2018-030J,2026-07-18T18:04:43.396320,14.34217332,.0002297,86.3957,277.2691,96.0593,264.0864,0,U,43257,999,43468,.16831E-4,.67E-6,0
IRIDIUM 143,2018-030K,2026-07-18T17:37:19.452288,14.34218381,.0002367,86.3959,277.3706,96.8546,263.2919,0,U,43258,999,43461,.35627E-4,.12E-5,0
IRIDIUM 161,2018-047C,2026-07-18T17:08:55.226112,14.43276704,.0002196,86.4458,75.2858,80.6814,279.4635,0,U,43478,999,42968,.36822E-4,.144E-5,0
IRIDIUM 152,2018-047D,2026-07-18T16:58:02.247744,14.34217536,.0002012,86.3931,75.1499,83.5543,276.5881,0,U,43479,999,42700,-.45883E-4,-.109E-5,0
IRIDIUM 147,2018-047E,2026-07-18T17:07:10.269984,14.34217637,.000229,86.3934,75.1533,88.0068,272.1390,0,U,43480,999,42700,.13714E-4,.58E-6,0
IRIDIUM 110,2018-047F,2026-07-18T17:16:18.033024,14.34216661,.0002084,86.3938,75.2434,78.0170,282.1260,0,U,43481,999,42699,.35085E-4,.118E-5,0
IRIDIUM 162,2018-047G,2026-07-18T16:59:50.779104,14.43279515,.0002195,86.4456,75.1789,87.0600,273.0852,0,U,43482,999,42967,.41002E-4,.158E-5,0
IRIDIUM 160,2018-061A,2026-07-18T19:19:14.422656,14.34217817,.0002216,86.3939,43.5712,86.6080,273.5370,0,U,43569,999,41790,.30811E-4,.106E-5,0
IRIDIUM 166,2018-061B,2026-07-18T13:13:54.490368,14.34217675,.00022872,86.3937,43.6276,89.7724,270.3734,0,U,43570,999,41789,-.1782786E-5,.15E-6,0
IRIDIUM 158,2018-061C,2026-07-18T12:28:14.483712,14.34217136,.00021056,86.3939,43.6504,89.1627,270.9810,0,U,43571,999,41785,.2240921E-5,.26E-6,0
IRIDIUM 165,2018-061D,2026-07-18T13:04:46.542432,14.34217727,.00022929,86.3940,43.6873,89.8809,270.2649,0,U,43572,999,41788,.13649121E-4,.58E-6,0
IRIDIUM 155,2018-061E,2026-07-18T12:09:58.472928,14.34217569,.00021436,86.3935,43.5703,90.7534,269.3907,0,U,43573,999,41784,.126508E-5,.23E-6,0
IRIDIUM 154,2018-061F,2026-07-18T20:04:54.494112,14.34217391,.0002318,86.3939,43.5676,89.1774,270.9687,0,U,43574,999,41794,-.28807E-5,.12E-6,0
IRIDIUM 163,2018-061G,2026-07-18T12:55:38.526240,14.34217443,.0002102,86.3937,43.6067,86.5154,273.6282,0,U,43575,999,41787,.3345166E-5,.29E-6,0
