IRIDIUM 138             
1 43071U 17083B   26199.78207227  .00000192  00000+0  61449-4 0  9995
2 43071  86.4001 308.5089 0002030  93.9917 266.1511 14.34217073448664
IRIDIUM 116             
1 43072U 17083C   26199.82012926  .00000126  00000+0  38090-4 0  9994
2 43072  86.3989 308.7782 0002495 100.0325 260.1153 14.34216762448704
IRIDIUM 130             
1 43073U 17083D   26199.78841757  .00000141  00000+0  43440-4 0  9994
2 43073  86.3995 309.0701 0002331 100.3469 259.7989 14.34218787448641
IRIDIUM 151             
1 43074U 17083E   26199.83281507  .00000105  00000+0  30314-4 0  9998
2 43074  86.3987 308.8319 0002289  95.5385 264.6072 14.34217702448676
IRIDIUM 134             
1 43075U 17083F   26199.80110169  .00000040  00000+0  70452-5 0  9997
2 43075  86.3990 308.8534 0002248  96.6551 263.4901 14.34217856448636
IRIDIUM 137             
1 43076U 17083G   26199.81378774 -.00000010  00000+0 -10621-4 0  9997
2 43076  86.3987 308.9417 0002561  91.9723 268.1766 14.34217624448703
IRIDIUM 141             
1 43077U 17083H   26199.73767544  .00000055  00000+0  12726-4 0  9991
2 43077  86.3987 308.8022 0002196  94.3679 265.7767 14.34217786448697
IRIDIUM 153             
1 43078U 17083J   26199.75962275  .00000024  00000+0  13332-5 0  9993
2 43078  86.3957 277.2716 0002127  95.7446 264.3992 14.34217675449801
IRIDIUM 131             
1 43079U 17083K   26199.79475906 -.00000036  00000+0 -19877-4 0  9992
2 43079  86.3986 308.9664 0002088  93.6613 266.4822 14.34217464448638
IRIDIUM 144             
1 43249U 18030A   26199.76596534  .00000083  00000+0  22481-4 0  9997
2 43249  86.3956 277.1974 0002357  95.4703 264.6762 14.34217236434662
IRIDIUM 149             
1 43250U 18030B   26199.77230804  .00000009  00000+0 -38365-5 0  9993
2 43250  86.3952 277.1610 0002115  93.3888 266.7550 14.34217622434689
IRIDIUM 157             
1 43251U 18030C   26199.72156791  .00000125  00000+0  37716-4 0  9997
2 43251  86.3956 277.2365 0002286  95.0896 265.0561 14.34218813434653
IRIDIUM 140             
1 43252U 18030D   26199.74059678  .00000132  00000+0  39983-4 0  9992
2 43252  86.3956 277.2410 0002253  95.9238 264.2215 14.34218472434713
IRIDIUM 145             
1 43253U 18030E   26199.72791065  .00000044  00000+0  87028-5 0  9990
2 43253  86.3955 277.2185 0002552  98.2475 261.9010 14.34217371434649
IRIDIUM 146             
1 43254U 18030F   26199.70888275  .00000028  00000+0  30874-5 0  9998
2 43254  86.3955 277.2385 0002365  96.0709 264.0757 14.34217491434656
IRIDIUM 148             
1 43255U 18030G   26199.74693895  .00000129  00000+0  38960-4 0  9990
2 43255  86.3956 277.2662 0002337  93.0815 267.0648 14.34218831434695
IRIDIUM 142             
1 43256U 18030H   26199.71522492  .00000017  00000+0 -96925-6 0  9996
2 43256  86.3952 277.1671 0002338  95.9280 264.2182 14.34217726434659
IRIDIUM 150             
1 43257U 18030J   26199.75328005  .00000067  00000+0  16831-4 0  9995
2 43257  86.3957 277.2691 0002297  96.0593 264.0864 14.34217332434682
IRIDIUM 143             
1 43258U 18030K   26199.73425292  .00000120  00000+0  35627-4 0  9994
2 43258  86.3959 277.3706 0002367  96.8546 263.2919 14.34218381434617
IRIDIUM 161             
1 43478U 18047C   26199.71452808  .00000144  00000+0  36822-4 0  9991
2 43478  86.4458  75.2858 0002196  80.6814 279.4635 14.43276704429686
IRIDIUM 152             
1 43479U 18047D   26199.70697046 -.00000109  00000+0 -45883-4 0  9996
2 43479  86.3931  75.1499 0002012  83.5543 276.5881 14.34217536427003
IRIDIUM 147             
1 43480U 18047E   26199.71331331  .00000058  00000+0  13714-4 0  9990
2 43480  86.3934  75.1533 0002290  88.0068 272.1390 14.34217637427006
IRIDIUM 110             
1 43481U 18047F   26199.71965316  .00000118  00000+0  35085-4 0  9999
2 43481  86.3938  75.2434 0002084  78.0170 282.1260 14.34216661426996
IRIDIUM 162             
1 43482U 18047G   26199.70822661  .00000158  00000+0  41002-4 0  9994
2 43482  86.4456  75.1789 0002195  87.0600 273.0852 14.43279515429677
IRIDIUM 160             
1 43569U 18061A   26199.80502804  .00000106  00000+0  30811-4 0  9990
2 43569  86.3939  43.5712 0002216  86.6080 273.5370 14.34217817417904
IRIDIUM 166             
1 43570U 18061B   26199.55132512  .00000015  00000+0 -17828-5 0  9993
2 43570  86.3937  43.6276 0002287  89.7724 270.3734 14.34217675417896
IRIDIUM 158             
1 43571U 18061C   26199.51961208  .00000026  00000+0  22409-5 0  9994
2 43571  86.3939  43.6504 0002105  89.1627 270.9810 14.34217136417857
IRIDIUM 165             
1 43572U 18061D   26199.54498313  .00000058  00000+0  13649-4 0  9990
2 43572  86.3940  43.6873 0002292  89.8809 270.2649 14.34217727417887
IRIDIUM 155             
1 43573U 18061E   26199.50692677  .00000023  00000+0  12651-5 0  9991
2 43573  86.3935  43.5703 0002143  90.7534 269.3907 14.34217569417840
IRIDIUM 154             
1 43574U 18061F   26199.83674183  .00000012  00000+0 -28807-5 0  9999
2 43574  86.3939  43.5676 0002318  89.1774 270.9687 14.34217391417943
IRIDIUM 163             
1 43575U 18061G   26199.53864035  .00000029  00000+0  33452-5 0  9993
2 43575  86.3937  43.6067 0002102  86.5154 273.6282 14.34217443417872
